start=new Date('2021-09-18T00:00:00.000Z').valueOf();
sats=[{"REV_AT_EPOCH":"3469","PERIAPSIS":"545.887","MEAN_ELEMENT_THEORY":"SGP4","ELEMENT_SET_NO":"999","ECCENTRICITY":"0.00019410","MEAN_ANOMALY":"297.7667","EPHEMERIS_TYPE":"0","MEAN_MOTION_DDOT":"0.0000000000000","SEMIMAJOR_AXIS":"6925.366","ARG_OF_PERICENTER":"62.3519","EPOCH":"2021-09-17T22:40:54.440256","OBJECT_NAME":"STARLINK-1991","RA_OF_ASC_NODE":"145.7772","TIME_SYSTEM":"UTC","REF_FRAME":"TEME","TLE_LINE2":"2 47587  53.0552 145.7772 0001941  62.3519 297.7667 15.06394226 34691","SITE":"AFETR","CENTER_NAME":"EARTH","GP_ID":"184911668","CLASSIFICATION_TYPE":"U","MEAN_MOTION":"15.06394226","COUNTRY_CODE":"US","NORAD_CAT_ID":"47587","DECAY_DATE":null,"OBJECT_TYPE":"PAYLOAD","TLE_LINE1":"1 47587U 21009AR  21260.94507454 -.00000467  00000-0 -12430-4 0  9995","APOAPSIS":"548.575","PERIOD":"95.593","RCS_SIZE":"LARGE","INCLINATION":"53.0552","MEAN_MOTION_DOT":"-0.00000467","BSTAR":"-0.00001243000000","FILE":"3118116","OBJECT_ID":"2021-009AR","LAUNCH_DATE":"2021-02-04"},{"MEAN_MOTION_DDOT":"0.0000000000000","EPHEMERIS_TYPE":"0","SEMIMAJOR_AXIS":"6925.370","MEAN_ELEMENT_THEORY":"SGP4","PERIAPSIS":"545.861","REV_AT_EPOCH":"3504","ECCENTRICITY":"0.00019840","MEAN_ANOMALY":"293.8299","ELEMENT_SET_NO":"999","SITE":"AFETR","TLE_LINE2":"2 47588  53.0554 159.4051 0001984  66.2898 293.8299 15.06393155 35044","REF_FRAME":"TEME","GP_ID":"184887295","CENTER_NAME":"EARTH","ARG_OF_PERICENTER":"66.2898","RA_OF_ASC_NODE":"159.4051","TIME_SYSTEM":"UTC","OBJECT_NAME":"STARLINK-1993","EPOCH":"2021-09-17T03:22:29.537760","TLE_LINE1":"1 47588U 21009AS  21260.14061965 -.00000701  00000-0 -28178-4 0  9997","OBJECT_TYPE":"PAYLOAD","DECAY_DATE":null,"NORAD_CAT_ID":"47588","MEAN_MOTION":"15.06393155","CLASSIFICATION_TYPE":"U","COUNTRY_CODE":"US","MEAN_MOTION_DOT":"-0.00000701","LAUNCH_DATE":"2021-02-04","BSTAR":"-0.00002817800000","FILE":"3117907","OBJECT_ID":"2021-009AS","APOAPSIS":"548.609","INCLINATION":"53.0554","PERIOD":"95.593","RCS_SIZE":"LARGE"},{"SEMIMAJOR_AXIS":"6925.381","MEAN_MOTION_DDOT":"0.0000000000000","EPHEMERIS_TYPE":"0","ELEMENT_SET_NO":"999","ECCENTRICITY":"0.00020440","MEAN_ANOMALY":"291.0987","REV_AT_EPOCH":"3507","PERIAPSIS":"545.830","MEAN_ELEMENT_THEORY":"SGP4","CENTER_NAME":"EARTH","GP_ID":"184887300","REF_FRAME":"TEME","TLE_LINE2":"2 47589  53.0551 158.1145 0002044  69.0221 291.0987 15.06389407 35073","SITE":"AFETR","EPOCH":"2021-09-17T10:11:11.700672","OBJECT_NAME":"STARLINK-1994","RA_OF_ASC_NODE":"158.1145","TIME_SYSTEM":"UTC","ARG_OF_PERICENTER":"69.0221","NORAD_CAT_ID":"47589","DECAY_DATE":null,"OBJECT_TYPE":"PAYLOAD","TLE_LINE1":"1 47589U 21009AT  21260.42444098 -.00000636  00000-0 -23789-4 0  9991","COUNTRY_CODE":"US","CLASSIFICATION_TYPE":"U","MEAN_MOTION":"15.06389407","FILE":"3117907","OBJECT_ID":"2021-009AT","BSTAR":"-0.00002378900000","LAUNCH_DATE":"2021-02-04","MEAN_MOTION_DOT":"-0.00000636","PERIOD":"95.593","RCS_SIZE":"LARGE","INCLINATION":"53.0551","APOAPSIS":"548.662"},{"OBJECT_NAME":"STARLINK-1995","EPOCH":"2021-09-17T11:33:27.324864","TIME_SYSTEM":"UTC","RA_OF_ASC_NODE":"177.8557","ARG_OF_PERICENTER":"69.8013","GP_ID":"184913420","CENTER_NAME":"EARTH","TLE_LINE2":"2 47590  53.0550 177.8557 0001883  69.8013 290.3179 15.06384646 34205","REF_FRAME":"TEME","SITE":"AFETR","ELEMENT_SET_NO":"999","ECCENTRICITY":"0.00018830","MEAN_ANOMALY":"290.3179","REV_AT_EPOCH":"3420","MEAN_ELEMENT_THEORY":"SGP4","PERIAPSIS":"545.957","SEMIMAJOR_AXIS":"6925.396","MEAN_MOTION_DDOT":"0.0000000000000","EPHEMERIS_TYPE":"0","RCS_SIZE":"LARGE","PERIOD":"95.593","INCLINATION":"53.0550","APOAPSIS":"548.565","BSTAR":"-0.00005478800000","FILE":"3118116","OBJECT_ID":"2021-009AU","LAUNCH_DATE":"2021-02-04","MEAN_MOTION_DOT":"-0.00001097","COUNTRY_CODE":"US","CLASSIFICATION_TYPE":"U","MEAN_MOTION":"15.06384646","DECAY_DATE":null,"NORAD_CAT_ID":"47590","TLE_LINE1":"1 47590U 21009AU  21260.48156626 -.00001097  00000-0 -54788-4 0  9991","OBJECT_TYPE":"PAYLOAD"},{"ECCENTRICITY":"0.00019750","MEAN_ANOMALY":"293.1681","ELEMENT_SET_NO":"999","PERIAPSIS":"545.865","MEAN_ELEMENT_THEORY":"SGP4","REV_AT_EPOCH":"3507","SEMIMAJOR_AXIS":"6925.368","MEAN_MOTION_DDOT":"0.0000000000000","EPHEMERIS_TYPE":"0","TIME_SYSTEM":"UTC","RA_OF_ASC_NODE":"158.1220","EPOCH":"2021-09-17T10:05:52.342944","OBJECT_NAME":"STARLINK-1996","ARG_OF_PERICENTER":"66.9516","CENTER_NAME":"EARTH","GP_ID":"184887309","SITE":"AFETR","REF_FRAME":"TEME","TLE_LINE2":"2 47591  53.0545 158.1220 0001975  66.9516 293.1681 15.06393808 35072","COUNTRY_CODE":"US","MEAN_MOTION":"15.06393808","CLASSIFICATION_TYPE":"U","OBJECT_TYPE":"PAYLOAD","TLE_LINE1":"1 47591U 21009AV  21260.42074471  .00001486  00000-0  11870-3 0  9997","NORAD_CAT_ID":"47591","DECAY_DATE":null,"INCLINATION":"53.0545","RCS_SIZE":"LARGE","PERIOD":"95.593","APOAPSIS":"548.600","LAUNCH_DATE":"2021-02-04","OBJECT_ID":"2021-009AV","FILE":"3117907","BSTAR":"0.00011870000000","MEAN_MOTION_DOT":"0.00001486"},{"ELEMENT_SET_NO":"999","MEAN_ANOMALY":"288.2593","ECCENTRICITY":"0.00020220","REV_AT_EPOCH":"3415","MEAN_ELEMENT_THEORY":"SGP4","PERIAPSIS":"545.805","SEMIMAJOR_AXIS":"6925.340","MEAN_MOTION_DDOT":"0.0000000000000","EPHEMERIS_TYPE":"0","OBJECT_NAME":"STARLINK-1997","EPOCH":"2021-09-17T04:28:49.224576","RA_OF_ASC_NODE":"179.1887","TIME_SYSTEM":"UTC","ARG_OF_PERICENTER":"71.8616","GP_ID":"184879735","CENTER_NAME":"EARTH","TLE_LINE2":"2 47592  53.0560 179.1887 0002022  71.8616 288.2593 15.06402641 34153","REF_FRAME":"TEME","SITE":"AFETR","COUNTRY_CODE":"US","CLASSIFICATION_TYPE":"U","MEAN_MOTION":"15.06402641","DECAY_DATE":null,"NORAD_CAT_ID":"47592","TLE_LINE1":"1 47592U 21009AW  21260.18668084 -.00001396  00000-0 -74833-4 0  9991","OBJECT_TYPE":"PAYLOAD","RCS_SIZE":"LARGE","PERIOD":"95.592","INCLINATION":"53.0560","APOAPSIS":"548.606","OBJECT_ID":"2021-009AW","FILE":"3117657","BSTAR":"-0.00007483300000","LAUNCH_DATE":"2021-02-04","MEAN_MOTION_DOT":"-0.00001396"},{"CLASSIFICATION_TYPE":"U","MEAN_MOTION":"15.06391326","COUNTRY_CODE":"US","DECAY_DATE":null,"NORAD_CAT_ID":"47593","TLE_LINE1":"1 47593U 21009AX  21260.48894000 -.00000702  00000-0 -28198-4 0  9997","OBJECT_TYPE":"PAYLOAD","APOAPSIS":"548.665","PERIOD":"95.593","RCS_SIZE":"LARGE","INCLINATION":"53.0556","MEAN_MOTION_DOT":"-0.00000702","BSTAR":"-0.00002819800000","FILE":"3118116","OBJECT_ID":"2021-009AX","LAUNCH_DATE":"2021-02-04","REV_AT_EPOCH":"3420","MEAN_ELEMENT_THEORY":"SGP4","PERIAPSIS":"545.815","ELEMENT_SET_NO":"999","MEAN_ANOMALY":"283.7872","ECCENTRICITY":"0.00020580","MEAN_MOTION_DDOT":"0.0000000000000","EPHEMERIS_TYPE":"0","SEMIMAJOR_AXIS":"6925.375","ARG_OF_PERICENTER":"76.3346","OBJECT_NAME":"STARLINK-1998","EPOCH":"2021-09-17T11:44:04.416000","TIME_SYSTEM":"UTC","RA_OF_ASC_NODE":"177.8416","TLE_LINE2":"2 47593  53.0556 177.8416 0002058  76.3346 283.7872 15.06391326 34204","REF_FRAME":"TEME","SITE":"AFETR","GP_ID":"184912670","CENTER_NAME":"EARTH"},{"SEMIMAJOR_AXIS":"6925.350","MEAN_MOTION_DDOT":"0.0000000000000","EPHEMERIS_TYPE":"0","MEAN_ANOMALY":"286.8395","ECCENTRICITY":"0.00018930","ELEMENT_SET_NO":"999","PERIAPSIS":"545.904","MEAN_ELEMENT_THEORY":"SGP4","REV_AT_EPOCH":"3473","CENTER_NAME":"EARTH","GP_ID":"184887003","SITE":"AFETR","REF_FRAME":"TEME","TLE_LINE2":"2 47594  53.0560 179.7669 0001893  73.2801 286.8395 15.06399645 34733","RA_OF_ASC_NODE":"179.7669","TIME_SYSTEM":"UTC","EPOCH":"2021-09-17T01:23:03.224544","OBJECT_NAME":"STARLINK-1999","ARG_OF_PERICENTER":"73.2801","OBJECT_TYPE":"PAYLOAD","TLE_LINE1":"1 47594U 21009AY  21260.05767621  .00000437  00000-0  48264-4 0  9998","NORAD_CAT_ID":"47594","DECAY_DATE":null,"COUNTRY_CODE":"US","MEAN_MOTION":"15.06399645","CLASSIFICATION_TYPE":"U","LAUNCH_DATE":"2021-02-04","BSTAR":"0.00004826400000","FILE":"3117907","OBJECT_ID":"2021-009AY","MEAN_MOTION_DOT":"0.00000437","INCLINATION":"53.0560","RCS_SIZE":"LARGE","PERIOD":"95.592","APOAPSIS":"548.526"},{"ELEMENT_SET_NO":"999","ECCENTRICITY":"0.00018150","MEAN_ANOMALY":"299.3681","REV_AT_EPOCH":"3420","MEAN_ELEMENT_THEORY":"SGP4","PERIAPSIS":"545.988","SEMIMAJOR_AXIS":"6925.380","MEAN_MOTION_DDOT":"0.0000000000000","EPHEMERIS_TYPE":"0","OBJECT_NAME":"STARLINK-2000","EPOCH":"2021-09-17T12:10:36.783552","RA_OF_ASC_NODE":"177.7504","TIME_SYSTEM":"UTC","ARG_OF_PERICENTER":"60.7489","GP_ID":"184911669","CENTER_NAME":"EARTH","TLE_LINE2":"2 47595  53.0562 177.7504 0001815  60.7489 299.3681 15.06389817 34208","REF_FRAME":"TEME","SITE":"AFETR","COUNTRY_CODE":"US","CLASSIFICATION_TYPE":"U","MEAN_MOTION":"15.06389817","DECAY_DATE":null,"NORAD_CAT_ID":"47595","TLE_LINE1":"1 47595U 21009AZ  21260.50737018 -.00001059  00000-0 -52239-4 0  9996","OBJECT_TYPE":"PAYLOAD","RCS_SIZE":"LARGE","PERIOD":"95.593","INCLINATION":"53.0562","APOAPSIS":"548.502","OBJECT_ID":"2021-009AZ","FILE":"3118116","BSTAR":"-0.00005223900000","LAUNCH_DATE":"2021-02-04","MEAN_MOTION_DOT":"-0.00001059"},{"SITE":"AFETR","TLE_LINE2":"2 47596  53.0556 177.7313 0002175  74.2026 285.9203 15.06400943 34202","REF_FRAME":"TEME","GP_ID":"184911919","CENTER_NAME":"EARTH","ARG_OF_PERICENTER":"74.2026","RA_OF_ASC_NODE":"177.7313","TIME_SYSTEM":"UTC","OBJECT_NAME":"STARLINK-2001","EPOCH":"2021-09-17T12:15:54.415872","MEAN_MOTION_DDOT":"0.0000000000000","EPHEMERIS_TYPE":"0","SEMIMAJOR_AXIS":"6925.346","MEAN_ELEMENT_THEORY":"SGP4","PERIAPSIS":"545.704","REV_AT_EPOCH":"3420","MEAN_ANOMALY":"285.9203","ECCENTRICITY":"0.00021750","ELEMENT_SET_NO":"999","MEAN_MOTION_DOT":"0.00001053","LAUNCH_DATE":"2021-02-04","BSTAR":"0.00008956800000","FILE":"3118116","OBJECT_ID":"2021-009BA","APOAPSIS":"548.717","INCLINATION":"53.0556","PERIOD":"95.592","RCS_SIZE":"LARGE","TLE_LINE1":"1 47596U 21009BA  21260.51104648  .00001053  00000-0  89568-4 0  9992","OBJECT_TYPE":"PAYLOAD","DECAY_DATE":null,"NORAD_CAT_ID":"47596","MEAN_MOTION":"15.06400943","CLASSIFICATION_TYPE":"U","COUNTRY_CODE":"US"}];
